{"fetched_at":"2026-05-15T02:58:15Z","count":8847,"tles":[{"name":"GAOFEN-3","line1":"1 41727U 16049A   26134.29681988  .00000055  00000+0  29889-4 0  9997","line2":"2 41727  98.4024 142.5940 0000973  78.9678 281.1621 14.42210817513762","category":"Other"},{"name":"LINGQIAO VIDEO B","line1":"1 40960U 15057C   26134.27285093  .00000276  00000+0  45531-4 0  9995","line2":"2 40960  97.6588 131.9234 0017719  24.7643 335.4415 14.77446960570441","category":"Other"},{"name":"FOX-1A (AO-85)","line1":"1 40967U 15058D   26134.07503685  .00002141  00000+0  20086-3 0  9991","line2":"2 40967  64.7769  24.9767 0129016  69.9651 291.5296 14.90761337108483","category":"Other"},{"name":"COSMOS 2507 (RODNIK-S *)","line1":"1 40920U 15050A   26134.26356897 -.00000010  00000+0 -14200-3 0  9990","line2":"2 40920  82.4887 100.7900 0011162  65.2824 294.9417 12.42925866482644","category":"Other"},{"name":"COSMOS 2508 (RODNIK-S *)","line1":"1 40921U 15050B   26134.29873605  .00000022  00000+0  84704-4 0  9993","line2":"2 40921  82.4840  99.2859 0015467  95.6623 264.6221 12.42913158482632","category":"Other"},{"name":"ORBCOMM FM108","line1":"1 41187U 15081J   26133.29009124  .00000384  00000+0  11751-3 0  9990","line2":"2 41187  47.0062 347.1829 0002245  29.8474 330.2539 14.58819887554988","category":"Other"},{"name":"COSMOS 2509 (RODNIK-S *)","line1":"1 40922U 15050C   26134.31823266  .00000006  00000+0 -29715-4 0  9999","line2":"2 40922  82.4848  99.3726 0015608 111.6782 248.5961 12.42882802482674","category":"Other"},{"name":"ELEKTRO-L 2","line1":"1 41105U 15074A   26134.17338236 -.00000102  00000+0  00000+0 0  9999","line2":"2 41105   6.6084  70.9329 0001452 266.9101 301.9937  1.00272580 38169","category":"Other"},{"name":"ZIYUAN 3-02 (ZY 3-02)","line1":"1 41556U 16033A   26134.31664819  .00003753  00000+0  16971-3 0  9992","line2":"2 41556  97.3843 210.7385 0013672  58.5025 301.7544 15.21458308552831","category":"Other"},{"name":"ORBCOMM FM112","line1":"1 41184U 15081F   26134.24203960  .00000348  00000+0  11015-3 0  9990","line2":"2 41184  46.9988  70.7544 0002304  41.7557 318.3505 14.58757571553995","category":"Other"},{"name":"CAS-2T & KS-1Q","line1":"1 41847U 16066G   26134.23181294  .00000570  00000+0  90011-4 0  9995","line2":"2 41847  98.3825 210.3525 0341118 232.4686 124.5057 14.44592529499896","category":"Other"},{"name":"HORYU-4","line1":"1 41340U 16012D   26133.68948449  .00132750  00000+0  72995-3 0  9991","line2":"2 41340  30.9895 328.5167 0005335  30.7718 329.3251 15.78201025565330","category":"Other"},{"name":"ORBCOMM FM117","line1":"1 41188U 15081K   26134.28287029  .00000396  00000+0  12018-3 0  9993","line2":"2 41188  47.0026 341.1337 0002614  43.8420 316.2673 14.58818910555175","category":"Other"},{"name":"LAPAN-A3","line1":"1 41603U 16040E   26134.31370172  .00002365  00000+0  76693-4 0  9995","line2":"2 41603  97.1485 131.5800 0011807 130.3018 229.9259 15.32884089549623","category":"Other"},{"name":"ORBCOMM FM110","line1":"1 41182U 15081D   26134.27119072  .00000267  00000+0  92822-4 0  9997","line2":"2 41182  47.0002 161.8001 0004071 276.9953  83.0470 14.58823028552679","category":"Other"},{"name":"RESOURCESAT-2A","line1":"1 41877U 16074A   26134.28723569 -.00000227  00000+0 -83174-4 0  9992","line2":"2 41877  98.7534 208.0667 0002595 149.4561 210.6768 14.21604346489489","category":"Other"},{"name":"ORBCOMM FM116","line1":"1 41189U 15081L   26133.16775868  .00000199  00000+0  78390-4 0  9990","line2":"2 41189  47.0023  76.1932 0002401 276.3059  83.7553 14.58826183553828","category":"Other"},{"name":"YUNHAI-1 01","line1":"1 41857U 16068A   26134.29485449  .00000389  00000+0  15913-3 0  9998","line2":"2 41857  98.5849 145.6165 0006314 125.5091 234.6683 14.32714905496978","category":"Other"},{"name":"LINGQIAO VIDEO A","line1":"1 40959U 15057B   26134.29374797  .00000922  00000+0  13626-3 0  9992","line2":"2 40959  97.6620 130.7707 0017556  24.7243 335.4806 14.77344972570403","category":"Other"}]}