OBJECT_NAME,OBJECT_ID,EPOCH,MEAN_MOTION,ECCENTRICITY,INCLINATION,RA_OF_ASC_NODE,ARG_OF_PERICENTER,MEAN_ANOMALY,EPHEMERIS_TYPE,CLASSIFICATION_TYPE,NORAD_CAT_ID,ELEMENT_SET_NO,REV_AT_EPOCH,BSTAR,MEAN_MOTION_DOT,MEAN_MOTION_DDOT
COSMOS 2507 (RODNIK-S 13),2015-050A,2026-05-14T06:19:32.359008,12.42925866,.00111623,82.4887,100.7900,65.2824,294.9417,0,U,40920,999,48264,-.14199621E-3,-.1E-6,0
COSMOS 2508 (RODNIK-S 14),2015-050B,2026-05-14T07:10:10.794720,12.42913158,.00154671,82.4840,99.2859,95.6623,264.6221,0,U,40921,999,48263,.84704171E-4,.22E-6,0
COSMOS 2509 (RODNIK-S 15),2015-050C,2026-05-14T07:38:15.301824,12.42882802,.00156082,82.4848,99.3726,111.6782,248.5961,0,U,40922,999,48267,-.29714996E-4,.6E-7,0
LINGQIAO VIDEO A,2015-057B,2026-05-14T07:02:59.824608,14.77344972,.00175568,97.6620,130.7707,24.7243,335.4806,0,U,40959,999,57040,.13625695E-3,.922E-5,0
LINGQIAO VIDEO B,2015-057C,2026-05-14T06:32:54.320352,14.77446960,.00177199,97.6588,131.9234,24.7643,335.4415,0,U,40960,999,57044,.45530836E-4,.276E-5,0
FOX-1A (AO-85),2015-058D,2026-05-14T01:48:03.183840,14.90761337,.01290169,64.7769,24.9767,69.9651,291.5296,0,U,40967,999,10848,.20086089E-3,.2141E-4,0
ELEKTRO-L 2,2015-074A,2026-05-14T04:09:40.235904,1.00272580,.00014526,6.6084,70.9329,266.9101,301.9937,0,U,41105,999,3816,0,-.102E-5,0
ORBCOMM FM110,2015-081D,2026-05-14T06:30:30.878208,14.58823028,.00040718,47.0002,161.8001,276.9953,83.0470,0,U,41182,999,55267,.92821566E-4,.267E-5,0
ORBCOMM FM112,2015-081F,2026-05-14T05:48:32.221440,14.58757571,.00023048,46.9988,70.7544,41.7557,318.3505,0,U,41184,999,55399,.11014522E-3,.348E-5,0
ORBCOMM FM108,2015-081J,2026-05-13T06:57:43.883136,14.58819887,.00022451,47.0062,347.1829,29.8474,330.2539,0,U,41187,999,55498,.117508E-3,.384E-5,0
ORBCOMM FM117,2015-081K,2026-05-14T06:47:19.993056,14.58818910,.00026145,47.0026,341.1337,43.8420,316.2673,0,U,41188,999,55517,.12017756E-3,.396E-5,0
ORBCOMM FM116,2015-081L,2026-05-13T04:01:34.349952,14.58826183,.00024017,47.0023,76.1932,276.3059,83.7553,0,U,41189,999,55382,.78390099E-4,.199E-5,0
HORYU-4,2016-012D,2026-05-13T16:32:51.459936,15.78201025,.00053359,30.9895,328.5167,30.7718,329.3251,0,U,41340,999,56533,.72994622E-3,.13275E-2,0
ZIYUAN 3-02 (ZY 3-02),2016-033A,2026-05-14T07:35:58.403616,15.21458308,.00136729,97.3843,210.7385,58.5025,301.7544,0,U,41556,999,55283,.1697105E-3,.3753E-4,0
LAPAN-A3,2016-040E,2026-05-14T07:31:43.828608,15.32884089,.00118073,97.1485,131.5800,130.3018,229.9259,0,U,41603,999,54962,.76692754E-4,.2365E-4,0
GAOFEN-3,2016-049A,2026-05-14T07:07:25.237632,14.42210817,.00009735,98.4024,142.5940,78.9678,281.1621,0,U,41727,999,51376,.29888735E-4,.55E-6,0
CAS-2T & KS-1Q,2016-066G,2026-05-14T05:33:48.638016,14.44592529,.0341118,98.3825,210.3525,232.4686,124.5057,0,U,41847,999,49989,.90011E-4,.57E-5,0
YUNHAI-1 01,2016-068A,2026-05-14T07:04:35.427936,14.32714905,.00063147,98.5849,145.6165,125.5091,234.6683,0,U,41857,999,49697,.15912863E-3,.389E-5,0
RESOURCESAT-2A,2016-074A,2026-05-14T06:53:37.163616,14.21604346,.00025959,98.7534,208.0667,149.4561,210.6768,0,U,41877,999,48948,-.83173816E-4,-.227E-5,0
